start=new Date('2022-09-08T00:00:00.000Z').valueOf();
sats=[{"NORAD_CAT_ID":"53408","PERIAPSIS":"348.875","MEAN_MOTION_DDOT":"0.0000000000000","SITE":"AFETR","PERIOD":"91.530","APOAPSIS":"350.330","COUNTRY_CODE":"US","ELEMENT_SET_NO":"999","RCS_SIZE":"LARGE","TLE_LINE2":"2 53408  53.2173 105.9150 0001081  59.4051 350.9756 15.73255364  1308","DECAY_DATE":null,"LAUNCH_DATE":"2022-08-10","GP_ID":"212012074","MEAN_MOTION_DOT":"-0.00077231","CLASSIFICATION_TYPE":"U","OBJECT_NAME":"STARLINK-4491","SEMIMAJOR_AXIS":"6727.737","RA_OF_ASC_NODE":"105.9150","MEAN_MOTION":"15.73255364","ECCENTRICITY":"0.00010810","TIME_SYSTEM":"UTC","REV_AT_EPOCH":"130","ARG_OF_PERICENTER":"59.4051","EPHEMERIS_TYPE":"0","TLE_LINE1":"1 53408U 22097W   22250.91667824 -.00077231  00000-0 -54962-3 0  9995","FILE":"3563022","MEAN_ELEMENT_THEORY":"SGP4","CENTER_NAME":"EARTH","EPOCH":"2022-09-07T22:00:00.999936","REF_FRAME":"TEME","MEAN_ANOMALY":"350.9756","BSTAR":"-0.00054962000000","OBJECT_ID":"2022-097W","INCLINATION":"53.2173","OBJECT_TYPE":"PAYLOAD"},{"ARG_OF_PERICENTER":"94.6725","EPHEMERIS_TYPE":"0","RA_OF_ASC_NODE":"105.9140","SEMIMAJOR_AXIS":"6727.723","OBJECT_NAME":"STARLINK-4490","MEAN_MOTION":"15.73260325","ECCENTRICITY":"0.00011030","REV_AT_EPOCH":"130","TIME_SYSTEM":"UTC","TLE_LINE2":"2 53409  53.2181 105.9140 0001103  94.6725 314.6057 15.73260325  1305","DECAY_DATE":null,"RCS_SIZE":"LARGE","LAUNCH_DATE":"2022-08-10","MEAN_MOTION_DOT":"-0.00066605","GP_ID":"212012988","CLASSIFICATION_TYPE":"U","MEAN_MOTION_DDOT":"0.0000000000000","NORAD_CAT_ID":"53409","PERIAPSIS":"348.846","COUNTRY_CODE":"US","ELEMENT_SET_NO":"999","APOAPSIS":"350.330","PERIOD":"91.530","SITE":"AFETR","OBJECT_TYPE":"PAYLOAD","BSTAR":"-0.00047269000000","INCLINATION":"53.2181","OBJECT_ID":"2022-097X","MEAN_ELEMENT_THEORY":"SGP4","CENTER_NAME":"EARTH","EPOCH":"2022-09-07T22:00:00.999936","REF_FRAME":"TEME","MEAN_ANOMALY":"314.6057","TLE_LINE1":"1 53409U 22097X   22250.91667824 -.00066605  00000-0 -47269-3 0  9991","FILE":"3563022"},{"ELEMENT_SET_NO":"999","COUNTRY_CODE":"US","APOAPSIS":"350.323","SITE":"AFETR","PERIOD":"91.531","MEAN_MOTION_DDOT":"0.0000000000000","PERIAPSIS":"348.981","NORAD_CAT_ID":"53410","MEAN_MOTION_DOT":"-0.00074578","GP_ID":"212012227","CLASSIFICATION_TYPE":"U","TLE_LINE2":"2 53410  53.2174 105.9156 0000997  73.2992 337.8047 15.73237884  1305","DECAY_DATE":null,"RCS_SIZE":"LARGE","LAUNCH_DATE":"2022-08-10","MEAN_MOTION":"15.73237884","ECCENTRICITY":"0.00009970","TIME_SYSTEM":"UTC","REV_AT_EPOCH":"130","RA_OF_ASC_NODE":"105.9156","SEMIMAJOR_AXIS":"6727.787","OBJECT_NAME":"STARLINK-4492","EPHEMERIS_TYPE":"0","ARG_OF_PERICENTER":"73.2992","TLE_LINE1":"1 53410U 22097Y   22250.91667824 -.00074578  00000-0 -53083-3 0  9992","FILE":"3563022","REF_FRAME":"TEME","MEAN_ANOMALY":"337.8047","MEAN_ELEMENT_THEORY":"SGP4","EPOCH":"2022-09-07T22:00:00.999936","CENTER_NAME":"EARTH","INCLINATION":"53.2174","OBJECT_ID":"2022-097Y","BSTAR":"-0.00053083000000","OBJECT_TYPE":"PAYLOAD"},{"RA_OF_ASC_NODE":"105.9156","SEMIMAJOR_AXIS":"6727.845","OBJECT_NAME":"STARLINK-4497","TIME_SYSTEM":"UTC","REV_AT_EPOCH":"130","MEAN_MOTION":"15.73217553","ECCENTRICITY":"0.00014780","ARG_OF_PERICENTER":"84.1023","EPHEMERIS_TYPE":"0","MEAN_MOTION_DDOT":"0.0000000000000","NORAD_CAT_ID":"53411","PERIAPSIS":"348.716","APOAPSIS":"350.705","COUNTRY_CODE":"US","ELEMENT_SET_NO":"999","PERIOD":"91.532","SITE":"AFETR","LAUNCH_DATE":"2022-08-10","TLE_LINE2":"2 53411  53.2172 105.9156 0001478  84.1023 325.7167 15.73217553  1305","DECAY_DATE":null,"RCS_SIZE":"LARGE","CLASSIFICATION_TYPE":"U","GP_ID":"212013141","MEAN_MOTION_DOT":"0.00046321","BSTAR":"0.00033239000000","INCLINATION":"53.2172","OBJECT_ID":"2022-097Z","OBJECT_TYPE":"PAYLOAD","FILE":"3563022","TLE_LINE1":"1 53411U 22097Z   22250.91667824  .00046321  00000-0  33239-3 0  9997","CENTER_NAME":"EARTH","EPOCH":"2022-09-07T22:00:00.999936","MEAN_ELEMENT_THEORY":"SGP4","MEAN_ANOMALY":"325.7167","REF_FRAME":"TEME"},{"REF_FRAME":"TEME","MEAN_ANOMALY":"335.0393","MEAN_ELEMENT_THEORY":"SGP4","EPOCH":"2022-09-07T22:00:00.999936","CENTER_NAME":"EARTH","TLE_LINE1":"1 53412U 22097AA  22250.91667824 -.00075100  00000-0 -53389-3 0  9995","FILE":"3563022","OBJECT_TYPE":"PAYLOAD","INCLINATION":"53.2172","OBJECT_ID":"2022-097AA","BSTAR":"-0.00053389000000","MEAN_MOTION_DOT":"-0.00075100","GP_ID":"212012487","CLASSIFICATION_TYPE":"U","TLE_LINE2":"2 53412  53.2172 105.9095 0001164  77.7564 335.0393 15.73268731  1307","RCS_SIZE":"LARGE","DECAY_DATE":null,"LAUNCH_DATE":"2022-08-10","COUNTRY_CODE":"US","ELEMENT_SET_NO":"999","APOAPSIS":"350.347","SITE":"AFETR","PERIOD":"91.529","MEAN_MOTION_DDOT":"0.0000000000000","PERIAPSIS":"348.781","NORAD_CAT_ID":"53412","EPHEMERIS_TYPE":"0","ARG_OF_PERICENTER":"77.7564","MEAN_MOTION":"15.73268731","ECCENTRICITY":"0.00011640","TIME_SYSTEM":"UTC","REV_AT_EPOCH":"130","SEMIMAJOR_AXIS":"6727.699","RA_OF_ASC_NODE":"105.9095","OBJECT_NAME":"STARLINK-4496"},{"FILE":"3563022","TLE_LINE1":"1 53413U 22097AB  22250.91667824 -.00066651  00000-0 -47262-3 0  9990","MEAN_ANOMALY":"349.5856","REF_FRAME":"TEME","CENTER_NAME":"EARTH","EPOCH":"2022-09-07T22:00:00.999936","MEAN_ELEMENT_THEORY":"SGP4","INCLINATION":"53.2171","OBJECT_ID":"2022-097AB","BSTAR":"-0.00047262000000","OBJECT_TYPE":"PAYLOAD","COUNTRY_CODE":"US","ELEMENT_SET_NO":"999","APOAPSIS":"350.103","PERIOD":"91.528","SITE":"AFETR","MEAN_MOTION_DDOT":"0.0000000000000","PERIAPSIS":"348.956","NORAD_CAT_ID":"53413","CLASSIFICATION_TYPE":"U","MEAN_MOTION_DOT":"-0.00066651","GP_ID":"212012795","LAUNCH_DATE":"2022-08-10","DECAY_DATE":null,"TLE_LINE2":"2 53413  53.2171 105.9113 0000852  62.0203 349.5856 15.73280936  1303","RCS_SIZE":"LARGE","REV_AT_EPOCH":"130","TIME_SYSTEM":"UTC","ECCENTRICITY":"0.00008520","MEAN_MOTION":"15.73280936","RA_OF_ASC_NODE":"105.9113","SEMIMAJOR_AXIS":"6727.664","OBJECT_NAME":"STARLINK-4500","EPHEMERIS_TYPE":"0","ARG_OF_PERICENTER":"62.0203"},{"TLE_LINE1":"1 53414U 22097AC  22250.91667824 -.00069916  00000-0 -49659-3 0  9990","FILE":"3563022","MEAN_ELEMENT_THEORY":"SGP4","EPOCH":"2022-09-07T22:00:00.999936","CENTER_NAME":"EARTH","REF_FRAME":"TEME","MEAN_ANOMALY":"336.3380","BSTAR":"-0.00049659000000","OBJECT_ID":"2022-097AC","INCLINATION":"53.2186","OBJECT_TYPE":"PAYLOAD","PERIAPSIS":"348.943","NORAD_CAT_ID":"53414","MEAN_MOTION_DDOT":"0.0000000000000","SITE":"AFETR","PERIOD":"91.530","COUNTRY_CODE":"US","ELEMENT_SET_NO":"999","APOAPSIS":"350.227","TLE_LINE2":"2 53414  53.2186 105.9076 0000954  77.0604 336.3380 15.73261338  1303","DECAY_DATE":null,"RCS_SIZE":"LARGE","LAUNCH_DATE":"2022-08-10","MEAN_MOTION_DOT":"-0.00069916","GP_ID":"212012640","CLASSIFICATION_TYPE":"U","OBJECT_NAME":"STARLINK-4304","SEMIMAJOR_AXIS":"6727.720","RA_OF_ASC_NODE":"105.9076","ECCENTRICITY":"0.00009540","MEAN_MOTION":"15.73261338","REV_AT_EPOCH":"130","TIME_SYSTEM":"UTC","ARG_OF_PERICENTER":"77.0604","EPHEMERIS_TYPE":"0"},{"MEAN_MOTION_DOT":"-0.00067605","GP_ID":"212012947","CLASSIFICATION_TYPE":"U","TLE_LINE2":"2 53415  53.2174 105.9070 0001250  63.1526 350.8267 15.73280926  1303","DECAY_DATE":null,"RCS_SIZE":"LARGE","LAUNCH_DATE":"2022-08-10","SITE":"AFETR","PERIOD":"91.528","APOAPSIS":"350.370","COUNTRY_CODE":"US","ELEMENT_SET_NO":"999","NORAD_CAT_ID":"53415","PERIAPSIS":"348.689","MEAN_MOTION_DDOT":"0.0000000000000","EPHEMERIS_TYPE":"0","ARG_OF_PERICENTER":"63.1526","ECCENTRICITY":"0.00012500","MEAN_MOTION":"15.73280926","TIME_SYSTEM":"UTC","REV_AT_EPOCH":"130","OBJECT_NAME":"STARLINK-4479","SEMIMAJOR_AXIS":"6727.664","RA_OF_ASC_NODE":"105.9070","REF_FRAME":"TEME","MEAN_ANOMALY":"350.8267","MEAN_ELEMENT_THEORY":"SGP4","CENTER_NAME":"EARTH","EPOCH":"2022-09-07T22:00:00.999936","TLE_LINE1":"1 53415U 22097AD  22250.91667824 -.00067605  00000-0 -47948-3 0  9993","FILE":"3563022","OBJECT_TYPE":"PAYLOAD","OBJECT_ID":"2022-097AD","INCLINATION":"53.2174","BSTAR":"-0.00047948000000"},{"OBJECT_NAME":"STARLINK-4480","RA_OF_ASC_NODE":"105.9017","SEMIMAJOR_AXIS":"6727.736","ECCENTRICITY":"0.00011870","MEAN_MOTION":"15.73255870","TIME_SYSTEM":"UTC","REV_AT_EPOCH":"130","ARG_OF_PERICENTER":"71.0481","EPHEMERIS_TYPE":"0","NORAD_CAT_ID":"53416","PERIAPSIS":"348.802","MEAN_MOTION_DDOT":"0.0000000000000","SITE":"AFETR","PERIOD":"91.530","COUNTRY_CODE":"US","APOAPSIS":"350.399","ELEMENT_SET_NO":"999","RCS_SIZE":"LARGE","TLE_LINE2":"2 53416  53.2180 105.9017 0001187  71.0481 344.6695 15.73255870  1305","DECAY_DATE":null,"LAUNCH_DATE":"2022-08-10","GP_ID":"212012075","MEAN_MOTION_DOT":"-0.00080035","CLASSIFICATION_TYPE":"U","BSTAR":"-0.00056991000000","OBJECT_ID":"2022-097AE","INCLINATION":"53.2180","OBJECT_TYPE":"PAYLOAD","TLE_LINE1":"1 53416U 22097AE  22250.91667824 -.00080035  00000-0 -56991-3 0  9994","FILE":"3563022","MEAN_ELEMENT_THEORY":"SGP4","EPOCH":"2022-09-07T22:00:00.999936","CENTER_NAME":"EARTH","REF_FRAME":"TEME","MEAN_ANOMALY":"344.6695"},{"EPOCH":"2022-09-07T22:00:00.999936","CENTER_NAME":"EARTH","MEAN_ELEMENT_THEORY":"SGP4","MEAN_ANOMALY":"348.9144","REF_FRAME":"TEME","FILE":"3563022","TLE_LINE1":"1 53417U 22097AF  22250.91667824  .00051717  00000-0  36982-3 0  9996","OBJECT_TYPE":"PAYLOAD","BSTAR":"0.00036982000000","OBJECT_ID":"2022-097AF","INCLINATION":"53.2172","LAUNCH_DATE":"2022-08-10","TLE_LINE2":"2 53417  53.2172 105.9068 0000925  65.6703 348.9144 15.73251787  1307","DECAY_DATE":null,"RCS_SIZE":"LARGE","CLASSIFICATION_TYPE":"U","MEAN_MOTION_DOT":"0.00051717","GP_ID":"212012989","NORAD_CAT_ID":"53417","PERIAPSIS":"348.990","MEAN_MOTION_DDOT":"0.0000000000000","SITE":"AFETR","PERIOD":"91.530","APOAPSIS":"350.235","COUNTRY_CODE":"US","ELEMENT_SET_NO":"999","ARG_OF_PERICENTER":"65.6703","EPHEMERIS_TYPE":"0","OBJECT_NAME":"STARLINK-4484","RA_OF_ASC_NODE":"105.9068","SEMIMAJOR_AXIS":"6727.748","REV_AT_EPOCH":"130","TIME_SYSTEM":"UTC","ECCENTRICITY":"0.00009250","MEAN_MOTION":"15.73251787"}];
